PROBA-1                 
1 26958U 01049B   24198.52342216  .00005098  00000+0  38671-3 0  9992
2 26958  97.9175 175.6552 0057229 325.9438  33.8118 15.01393129238236
CUTE-1 (CO-55)          
1 27844U 03031E   24198.61622712  .00000683  00000+0  32068-3 0  9991
2 27844  98.6767 205.2349 0010880  63.1447 297.0842 14.23316099 91973
CUBESAT XI-IV (CO-57)   
1 27848U 03031J   24198.49168635  .00000576  00000+0  27612-3 0  9990
2 27848  98.6796 205.3405 0010904  77.7977 282.4422 14.22749806 91707
GENESIS 1               
1 29252U 06029A   24198.01837023  .00021646  00000+0  53762-3 0  9999
2 29252  64.5158  68.6536 0026963 318.6278  41.2813 15.39980091995025
GENESIS 2               
1 31789U 07028A   24198.15550428  .00023770  00000+0  62984-3 0  9999
2 31789  64.4895 113.9900 0019217 226.1211 133.8335 15.38144430941872
APRIZESAT 4             
1 35684U 09041D   24198.60578727  .00001695  00000+0  21961-3 0  9998
2 35684  98.2348 246.2547 0046414  69.0632 291.5538 14.81510261807532
APRIZESAT 3             
1 35686U 09041F   24198.55001202  .00003794  00000+0  37025-3 0  9993
2 35686  98.1192 313.5076 0066813 215.6292 144.0457 14.91405369811744
PROBA-2                 
1 36037U 09059B   24198.45784248  .00000486  00000+0  12604-3 0  9991
2 36037  98.2319  21.3962 0012083 286.0543  73.9323 14.53978534779669
APRIZESAT 5             
1 37792U 11044E   24198.30935072  .00001952  00000+0  27138-3 0  9991
2 37792  98.2405 102.8318 0056749  96.0000 264.7681 14.77952582695135
APRIZESAT 6             
1 37793U 11044F   24198.58532519  .00001328  00000+0  20459-3 0  9997
2 37793  98.2985  82.6959 0045433 161.6359 261.5973 14.74532720693805
PROBA-V                 
1 39159U 13021A   24198.60123951  .00000181  00000+0  97719-4 0  9991
2 39159  98.3063 203.4771 0004879  39.2630 320.8903 14.23281673581447
APRIZESAT 7             
1 39416U 13066A   24198.57676664  .00003219  00000+0  35578-3 0  9995
2 39416  97.6719 156.8282 0038939  13.8851 346.3427 14.87540312576905
APRIZESAT 8             
1 39425U 13066K   24198.46413401  .00002529  00000+0  30145-3 0  9999
2 39425  97.7297 150.0675 0050536  70.4016 290.2644 14.84266518575589
BUGSAT-1 (TITA)         
1 40014U 14033E   24198.60778061  .00009388  00000+0  66695-3 0  9991
2 40014  98.1236 241.6973 0035514  37.1314 323.2357 15.04426133550069
SAUDISAT 4              
1 40016U 14033G   24198.45672208  .00001573  00000+0  22498-3 0  9993
2 40016  97.6689   2.8170 0046460 191.9020 168.1097 14.77250061542521
APRIZESAT 9             
1 40018U 14033J   24198.35048108  .00001129  00000+0  18158-3 0  9995
2 40018  97.8069 342.8204 0067543 293.7981  65.6154 14.72011978540366
APRIZESAT 10            
1 40019U 14033K   24198.36258572  .00000883  00000+0  15187-3 0  9990
2 40019  97.8717 334.6972 0081231 352.6176   7.3827 14.68925983539283
TECHDEMOSAT-1 (TDS-1)   
1 40076U 14037H   24198.38958445  .00010361  00000+0  95623-3 0  9990
2 40076  98.3262 122.6146 0006824 113.3788 246.8149 14.94828392542805
TIANTUO 2               
1 40144U 14053B   24198.56176920  .00041695  00000+0  45470-3 0  9993
2 40144  97.1217 279.8647 0004433 291.3535  68.7251 15.63268421552590
TECHNOSAT               
1 42829U 17042E   24198.53098547  .00004800  00000+0  42249-3 0  9999
2 42829  97.3860  17.9610 0011789 343.0685  17.0143 14.96879717381567
FLYING LAPTOP           
1 42831U 17042G   24198.55974983  .00003107  00000+0  28634-3 0  9992
2 42831  97.3865  17.8060 0012184 343.8121  16.2710 14.95320930381520
HAWK-A                  
1 43765U 18099H   24198.59266820  .00006377  00000+0  47332-3 0  9998
2 43765  97.4951 254.9821 0009881 174.4847 185.6490 15.03351614307062
HAWK-B                  
1 43794U 18099AN  24198.59306366  .00005715  00000+0  42471-3 0  9994
2 43794  97.4949 254.9842 0009684 175.3971 184.7345 15.03344870307057
HAWK-C                  
1 43799U 18099AT  24198.59285608  .00006381  00000+0  47364-3 0  9990
2 43799  97.4952 254.8778 0009635 174.9346 185.1979 15.03350431307801
SALSAT                  
1 46495U 20068K   24198.43236273  .00009343  00000+0  52298-3 0  9995
2 46495  97.8169 158.4709 0012912 205.8848 154.1738 15.13604390208735
HAWK-2C                 
1 47502U 21006CT  24198.57491678  .00008628  00000+0  40133-3 0  9995
2 47502  97.3305 247.6941 0010268 166.1963 193.9555 15.20142093192487
HAWK-2A                 
1 47505U 21006CW  24198.50925152  .00008998  00000+0  41850-3 0  9997
2 47505  97.3365 247.8738 0009316 168.5370 191.6080 15.20141674192473
HAWK-2B                 
1 47508U 21006CZ  24198.11452514  .00007677  00000+0  35759-3 0  9998
2 47508  97.3216 247.0456 0009998 169.5063 190.6383 15.20135597192412
HAWK-3B                 
1 48931U 21059BE  24198.36130638  .00014992  00000+0  52689-3 0  9993
2 48931  97.6323 343.4034 0010881 344.1413  15.9484 15.29422622169491
HAWK-3C                 
1 48948U 21059BX  24198.42640631  .00014815  00000+0  52060-3 0  9994
2 48948  97.6585 347.1482 0011763 348.2763  11.8201 15.29420894169503
HAWK-3A                 
1 48957U 21059CG  24198.36086277  .00014999  00000+0  52702-3 0  9993
2 48957  97.6454 345.2493 0011746 341.4894  18.5917 15.29421039169498
HAWK-4B                 
1 52165U 22033J   24198.19058370  .00024423  00000+0  60372-3 0  9991
2 52165  97.3250 280.9957 0007411 188.3274 171.7850 15.40440177127779
HAWK-4A                 
1 52167U 22033L   24198.19037514  .00024741  00000+0  61161-3 0  9990
2 52167  97.3194 280.4637 0006955 186.9493 173.1658 15.40439811127772
HAWK-4C                 
1 52170U 22033P   24198.19019609  .00024331  00000+0  60122-3 0  9990
2 52170  97.3249 280.9724 0008827 178.2835 181.8444 15.40440386127771
HAWK-5C                 
1 52754U 22057Y   24198.34740748  .00012909  00000+0  53220-3 0  9995
2 52754  97.5809 320.8966 0008787  56.4549 303.7526 15.24177506118655
HAWK-5B                 
1 52756U 22057AA  24198.54421965  .00013178  00000+0  54310-3 0  9996
2 52756  97.5806 319.5428 0009279  50.5810 309.6247 15.24178501118689
HAWK-5A                 
1 52757U 22057AB  24198.34703302  .00013032  00000+0  53713-3 0  9998
2 52757  97.5808 320.1136 0009664  54.1344 306.0789 15.24175167118650
HAWK-6B                 
1 55324U 23011A   24198.14423448  .00006492  00000+0  38360-3 0  9993
2 55324  40.5170  89.5532 0004784 335.8712  24.1869 15.11722058 81283
HAWK-6C                 
1 55326U 23011C   24198.14379882  .00006479  00000+0  38286-3 0  9999
2 55326  40.4856  88.0453 0005540 336.9686  23.0870 15.11715129 81296
HAWK-6A                 
1 55327U 23011D   24198.14371536  .00006621  00000+0  39104-3 0  9997
2 55327  40.5017  88.8275 0005801 330.4934  29.5543 15.11717429 81295
HAWK-7A                 
1 56191U 23054P   24198.58390991  .00009477  00000+0  45249-3 0  9997
2 56191  97.3677  89.5833 0009675  45.2811 314.9210 15.19215566 70184
HAWK-7B                 
1 56193U 23054R   24198.58373853  .00009541  00000+0  45514-3 0  9994
2 56193  97.3586  88.2673 0010673  56.5345 303.6908 15.19237270 70185
HAWK-7C                 
1 56200U 23054Y   24198.58355442  .00009454  00000+0  45143-3 0  9998
2 56200  97.3587  89.0610 0009743  54.9900 305.2248 15.19214018 70180